OBJECT_NAME,OBJECT_ID,EPOCH,MEAN_MOTION,ECCENTRICITY,INCLINATION,RA_OF_ASC_NODE,ARG_OF_PERICENTER,MEAN_ANOMALY,EPHEMERIS_TYPE,CLASSIFICATION_TYPE,NORAD_CAT_ID,ELEMENT_SET_NO,REV_AT_EPOCH,BSTAR,MEAN_MOTION_DOT,MEAN_MOTION_DDOT
SL-12 R/B(2),1985-042D,2026-07-19T16:23:45.144960,14.22011512,.0037365,71.1070,168.8596,279.6137,253.4167,0,U,15772,999,13315,.4147E-4,.44E-6,0
SL-14 R/B,1985-069B,2026-07-19T16:20:57.705216,14.86536751,.0020235,82.5256,260.8071,113.4390,246.8957,0,U,15945,999,19244,.16663E-4,.173E-5,0
SL-16 R/B,1985-097B,2026-07-19T11:41:26.913984,14.16614862,.0005825,71.0005,223.0765,42.9042,122.4380,0,U,16182,999,10589,.13797E-3,.228E-5,0
SL-14 R/B,1986-006B,2026-07-19T19:45:36.653760,14.86970144,.0075861,82.5284,135.4030,193.3887,166.5320,0,U,16496,999,16884,.21429E-4,.229E-5,0
COSMOS 1743,1986-034A,2026-07-19T17:56:28.161024,15.69957599,.0005562,82.5270,294.0361,162.7868,197.3584,0,U,16719,999,20089,.28873E-3,.34727E-3,0
SL-14 R/B,1986-046B,2026-07-19T19:38:01.761216,14.85692546,.002393,82.4840,315.3432,148.1415,212.1255,0,U,16792,999,14602,.24011E-4,.234E-5,0
SL-14 R/B,1986-055B,2026-07-19T21:29:02.280192,14.85742067,.0017378,82.5208,2.3769,253.3739,267.4146,0,U,16882,999,13899,.23044E-4,.225E-5,0
AJISAI (EGS),1986-061A,2026-07-19T21:19:09.596928,12.44516673,.0011079,50.0104,46.8403,263.8836,110.1242,0,U,16908,999,48446,-.42627E-4,-.103E-5,0
SL-14 R/B,1987-024B,2026-07-19T19:16:57.654048,14.86233612,.0018253,82.5303,328.5931,178.3466,181.7814,0,U,17567,999,10775,.22728E-4,.225E-5,0
COSMOS 1833,1987-027A,2026-07-19T19:30:33.829056,14.13067538,.0024579,70.9213,48.2944,1.3234,358.7948,0,U,17589,999,2898,.26358E-4,.1E-7,0
SL-16 R/B,1987-027B,2026-07-19T19:49:24.322080,14.17175289,.0007206,71.0038,358.0469,277.0369,82.9935,0,U,17590,999,3406,.11904E-3,.192E-5,0
SL-14 R/B,1987-038B,2026-07-19T09:28:42.029760,14.85463004,.00208779,82.5016,172.7344,89.4017,270.9592,0,U,17912,999,9878,.23127289E-4,.225E-5,0
COSMOS 1844,1987-041A,2026-07-19T18:38:36.995712,14.14581274,.0031018,70.9000,115.5664,188.6940,171.3648,0,U,17973,999,2226,.58208E-6,-.47E-6,0
SL-14 R/B,1987-055B,2026-07-19T11:35:51.192096,14.85728397,.00191874,82.4969,224.7822,299.9193,60.0117,0,U,18153,999,8950,.17092266E-4,.173E-5,0
COSMOS 1867,1987-060A,2026-07-19T11:29:28.383936,14.31518752,.00172592,65.0117,297.6238,281.9416,77.9733,0,U,18187,999,3880,.17491315E-4,-.54E-6,0
SL-14 R/B,1988-001B,2026-07-19T21:24:00.429696,14.85628340,.0018554,82.5116,71.0030,156.6156,203.5908,0,U,18749,999,6165,.17355E-4,.175E-5,0
COSMOS 1933,1988-020A,2026-07-19T18:44:57.361344,15.18906222,.0005948,82.5140,120.1560,95.6514,264.5398,0,U,18958,999,7027,.91731E-4,.1946E-4,0
SL-3 R/B,1988-032B,2026-07-19T21:00:09.863424,15.21051752,.0026858,97.5280,183.8913,130.1453,230.2141,0,U,19046,999,7219,.98088E-4,.2126E-4,0
SL-16 R/B,1988-039B,2026-07-19T19:33:58.541760,14.19631786,.0020367,71.0143,149.1661,141.8903,218.3667,0,U,19120,999,97713,.70426E-4,.101E-5,0
COSMOS 1953,1988-050A,2026-07-19T12:27:44.752608,15.30371515,.00111212,82.5068,25.4151,25.8455,334.3338,0,U,19210,999,5793,.13977535E-3,.4146E-4,0
SL-8 R/B,1988-053B,2026-07-19T13:28:19.297344,14.38979461,.0019891,74.0453,229.3803,13.5810,148.2224,0,U,19257,999,99556,.37487E-4,.9E-6,0
COSMOS 1975,1988-093A,2026-07-19T20:45:52.602624,15.29698173,.0012351,82.5207,344.8197,67.9299,292.3251,0,U,19573,999,3960,.14692E-3,.4269E-4,0
SL-14 R/B,1988-093B,2026-07-19T16:26:43.058112,14.85761536,.0019653,82.5312,278.1370,324.8869,194.1516,0,U,19574,999,2061,.16198E-4,.165E-5,0
SL-16 R/B,1988-102B,2026-07-19T18:42:34.096320,14.16167223,.0014043,70.9972,233.5606,178.3923,181.7248,0,U,19650,999,94559,.9621E-4,.143E-5,0
INTERCOSMOS 24,1989-080A,2026-07-19T17:40:55.078176,12.59693058,.1186963,82.6056,18.4573,346.4034,10.7481,0,U,20261,999,68342,.34327E-4,.128E-5,0
SL-14 R/B,1989-080C,2026-07-19T17:21:01.038816,12.50578990,.122887,82.5928,88.4024,242.9312,104.1290,0,U,20262,999,67665,.13042E-4,.48E-6,0
DELTA 1 R/B,1989-089B,2026-07-19T11:57:33.369696,14.50749171,.00705531,97.0637,26.8860,66.6727,294.1874,0,U,20323,999,91484,.35051917E-4,.107E-5,0
ARIANE 40 R/B,1990-005H,2026-07-19T18:33:53.093952,14.39941887,.0010576,98.2940,257.3733,160.7540,199.4050,0,U,20443,999,91181,.36107E-4,.71E-6,0
DELTA 2 R/B(1),1990-008B,2026-07-19T18:41:02.412096,15.74370139,.0056662,35.6000,16.7310,59.8148,300.8190,0,U,20453,999,94683,.54177E-3,.91056E-3,0
COSMOS 2058,1990-010A,2026-07-19T16:38:37.823712,15.12172260,.0008306,82.4675,277.2952,231.2710,128.7779,0,U,20465,999,96218,.10827E-3,.1897E-4,0
SL-14 R/B,1990-010B,2026-07-19T19:26:33.841824,14.83664531,.0018648,82.5038,143.3093,221.0058,138.9756,0,U,20466,999,94807,.18958E-4,.181E-5,0
