SL-12 R/B(2)            
1 15772U 85042D   26200.68316140  .00000044  00000+0  41470-4 0  9997
2 15772  71.1070 168.8596 0037365 279.6137 253.4167 14.22011512133152
SL-14 R/B               
1 15945U 85069B   26200.68122344  .00000173  00000+0  16663-4 0  9998
2 15945  82.5256 260.8071 0020235 113.4390 246.8957 14.86536751192448
SL-16 R/B               
1 16182U 85097B   26200.48711706  .00000228  00000+0  13797-3 0  9992
2 16182  71.0005 223.0765 0005825  42.9042 122.4380 14.16614862105891
SL-14 R/B               
1 16496U 86006B   26200.82334090  .00000229  00000+0  21429-4 0  9999
2 16496  82.5284 135.4030 0075861 193.3887 166.5320 14.86970144168843
COSMOS 1743             
1 16719U 86034A   26200.74754816  .00034727  00000+0  28873-3 0  9990
2 16719  82.5270 294.0361 0005562 162.7868 197.3584 15.69957599200892
SL-14 R/B               
1 16792U 86046B   26200.81807594  .00000234  00000+0  24011-4 0  9991
2 16792  82.4840 315.3432 0023930 148.1415 212.1255 14.85692546146026
SL-14 R/B               
1 16882U 86055B   26200.89516528  .00000225  00000+0  23044-4 0  9998
2 16882  82.5208   2.3769 0017378 253.3739 267.4146 14.85742067138991
AJISAI (EGS)            
1 16908U 86061A   26200.88830552 -.00000103  00000+0 -42627-4 0  9994
2 16908  50.0104  46.8403 0011079 263.8836 110.1242 12.44516673484461
SL-14 R/B               
1 17567U 87024B   26200.80344507  .00000225  00000+0  22728-4 0  9991
2 17567  82.5303 328.5931 0018253 178.3466 181.7814 14.86233612107750
COSMOS 1833             
1 17589U 87027A   26200.81289154  .00000001  00000+0  26358-4 0  9990
2 17589  70.9213  48.2944 0024579   1.3234 358.7948 14.13067538 28984
SL-16 R/B               
1 17590U 87027B   26200.82597595  .00000192  00000+0  11904-3 0  9995
2 17590  71.0038 358.0469 0007206 277.0369  82.9935 14.17175289 34061
SL-14 R/B               
1 17912U 87038B   26200.39493090  .00000225  00000+0  23127-4 0  9990
2 17912  82.5016 172.7344 0020877  89.4017 270.9592 14.85463004 98786
COSMOS 1844             
1 17973U 87041A   26200.77681708 -.00000047  00000+0  58208-6 0  9991
2 17973  70.9000 115.5664 0031018 188.6940 171.3648 14.14581274 22261
SL-14 R/B               
1 18153U 87055B   26200.48323139  .00000173  00000+0  17092-4 0  9999
2 18153  82.4969 224.7822 0019187 299.9193  60.0117 14.85728397 89504
COSMOS 1867             
1 18187U 87060A   26200.47880074 -.00000054  00000+0  17491-4 0  9999
2 18187  65.0117 297.6238 0017259 281.9416  77.9733 14.31518752 38801
SL-14 R/B               
1 18749U 88001B   26200.89167164  .00000175  00000+0  17355-4 0  9995
2 18749  82.5116  71.0030 0018554 156.6156 203.5908 14.85628340 61654
COSMOS 1933             
1 18958U 88020A   26200.78121946  .00001946  00000+0  91731-4 0  9991
2 18958  82.5140 120.1560 0005948  95.6514 264.5398 15.18906222 70273
SL-3 R/B                
1 19046U 88032B   26200.87511416  .00002126  00000+0  98088-4 0  9991
2 19046  97.5280 183.8913 0026858 130.1453 230.2141 15.21051752 72193
SL-16 R/B               
1 19120U 88039B   26200.81526090  .00000101  00000+0  70426-4 0  9996
2 19120  71.0143 149.1661 0020367 141.8903 218.3667 14.19631786977139
COSMOS 1953             
1 19210U 88050A   26200.51926797  .00004146  00000+0  13978-3 0  9995
2 19210  82.5068  25.4151 0011121  25.8455 334.3338 15.30371515 57939
SL-8 R/B                
1 19257U 88053B   26200.56133446  .00000090  00000+0  37487-4 0  9991
2 19257  74.0453 229.3803 0019891  13.5810 148.2224 14.38979461995561
COSMOS 1975             
1 19573U 88093A   26200.86519216  .00004269  00000+0  14692-3 0  9996
2 19573  82.5207 344.8197 0012351  67.9299 292.3251 15.29698173 39604
SL-14 R/B               
1 19574U 88093B   26200.68522058  .00000165  00000+0  16198-4 0  9990
2 19574  82.5312 278.1370 0019653 324.8869 194.1516 14.85761536 20613
SL-16 R/B               
1 19650U 88102B   26200.77956130  .00000143  00000+0  96210-4 0  9997
2 19650  70.9972 233.5606 0014043 178.3923 181.7248 14.16167223945593
INTERCOSMOS 24          
1 20261U 89080A   26200.73674859  .00000128  00000+0  34327-4 0  9998
2 20261  82.6056  18.4573 1186963 346.4034  10.7481 12.59693058683428
SL-14 R/B               
1 20262U 89080C   26200.72292869  .00000048  00000+0  13042-4 0  9997
2 20262  82.5928  88.4024 1228870 242.9312 104.1290 12.50578990676658
DELTA 1 R/B             
1 20323U 89089B   26200.49830289  .00000107  00000+0  35052-4 0  9993
2 20323  97.0637  26.8860 0070553  66.6727 294.1874 14.50749171914848
ARIANE 40 R/B           
1 20443U 90005H   26200.77353118  .00000071  00000+0  36107-4 0  9990
2 20443  98.2940 257.3733 0010576 160.7540 199.4050 14.39941887911811
DELTA 2 R/B(1)          
1 20453U 90008B   26200.77850014  .00091056  00000+0  54177-3 0  9990
2 20453  35.6000  16.7310 0056662  59.8148 300.8190 15.74370139946839
COSMOS 2058             
1 20465U 90010A   26200.69349333  .00001897  00000+0  10827-3 0  9992
2 20465  82.4675 277.2952 0008306 231.2710 128.7779 15.12172260962182
SL-14 R/B               
1 20466U 90010B   26200.81011391  .00000181  00000+0  18958-4 0  9996
2 20466  82.5038 143.3093 0018648 221.0058 138.9756 14.83664531948072
